STARLINK-36674          
1 67661U 26022P   26040.91670139 -.01662744  81160-3 -39542-2 0  9992
2 67661  97.2815  73.4437 0001243  85.2896 199.3678 15.96782588  2426
STARLINK-36700          
1 67662U 26022Q   26040.91670139 -.01640581  79464-3 -38258-2 0  9995
2 67662  97.2811  73.4459 0001238  84.8081 205.4782 15.97139934  2429
STARLINK-36675          
1 67663U 26022R   26040.91670139 -.01652637  80402-3 -38914-2 0  9994
2 67663  97.2812  73.4447 0001245  77.0254 210.4731 15.96964009  2420
STARLINK-36404          
1 67664U 26022S   26040.91670139 -.01631307  78783-3 -37670-2 0  9993
2 67664  97.2806  73.4465 0001196  81.0691 212.0489 15.97318659  2398
STARLINK-36399          
1 67665U 26022T   26040.91670139 -.01628163  78611-3 -37333-2 0  9996
2 67665  97.2805  73.4477 0001195  79.0943 216.1329 15.97447563  2392
STARLINK-36365          
1 67666U 26022U   26040.91670139 -.01628703  78839-3 -36921-2 0  9991
2 67666  97.2806  73.4495 0001246  76.9480 221.4085 15.97656221  2428
STARLINK-36622          
1 67667U 26022V   26040.91670139 -.01615377  77829-3 -36178-2 0  9997
2 67667  97.2804  73.4506 0001191  83.1872 218.4341 15.97875130  2427
STARLINK-36625          
1 67668U 26022W   26040.91670139 -.01619813  78435-3 -35797-2 0  9997
2 67668  97.2801  73.4521 0001154  80.4338 224.7218 15.98117597  2428
STARLINK-36639          
1 67669U 26022X   26040.91670139 -.01609166  77673-3 -35115-2 0  9995
2 67669  97.2803  73.4539 0001145  81.1945 227.3343 15.98344898  2426
STARLINK-36596          
1 67670U 26022Y   26040.91670139 -.01596982  76735-3 -34498-2 0  9999
2 67670  97.2799  73.4547 0001206  80.8386 230.5232 15.98525833  2427
STARLINK-36297          
1 67671U 26022Z   26040.91670139 -.01585682  75982-3 -33682-2 0  9992
2 67671  97.2797  73.4568 0001106  80.6112 235.5354 15.98827699  2428
STARLINK-36616          
1 67672U 26022AA  26040.91670139 -.01587653  76038-3 -33992-2 0  9990
2 67672  97.2799  73.4559 0001132  77.7562 236.1448 15.98685762  2420
