CCSDS_OMM_VERS = 2.0
CREATION_DATE  = 
ORIGINATOR     = 

OBJECT_NAME    = STARLINK-36674
OBJECT_ID      = 2026-022P
CENTER_NAME    = EARTH
REF_FRAME      = TEME
TIME_SYSTEM    = UTC
MEAN_ELEMENT_THEORY = SGP/SGP4

EPOCH          = 2026-02-09T22:00:03.000096
MEAN_MOTION    = 15.96782588
ECCENTRICITY   = .00012434
INCLINATION    = 97.2815
RA_OF_ASC_NODE = 73.4437
ARG_OF_PERICENTER = 85.2896
MEAN_ANOMALY   = 199.3678

EPHEMERIS_TYPE = 0
CLASSIFICATION_TYPE = U
NORAD_CAT_ID   = 67661
ELEMENT_SET_NO = 999
REV_AT_EPOCH   = 242
BSTAR          = -.39542449E-2
MEAN_MOTION_DOT = -.1662744E-1
MEAN_MOTION_DDOT = .81160426E-3

CCSDS_OMM_VERS = 2.0
CREATION_DATE  = 
ORIGINATOR     = 

OBJECT_NAME    = STARLINK-36700
OBJECT_ID      = 2026-022Q
CENTER_NAME    = EARTH
REF_FRAME      = TEME
TIME_SYSTEM    = UTC
MEAN_ELEMENT_THEORY = SGP/SGP4

EPOCH          = 2026-02-09T22:00:03.000096
MEAN_MOTION    = 15.97139934
ECCENTRICITY   = .0001238
INCLINATION    = 97.2811
RA_OF_ASC_NODE = 73.4459
ARG_OF_PERICENTER = 84.8081
MEAN_ANOMALY   = 205.4782

EPHEMERIS_TYPE = 0
CLASSIFICATION_TYPE = U
NORAD_CAT_ID   = 67662
ELEMENT_SET_NO = 999
REV_AT_EPOCH   = 242
BSTAR          = -.38258244E-2
MEAN_MOTION_DOT = -.1640581E-1
MEAN_MOTION_DDOT = .79464491E-3

CCSDS_OMM_VERS = 2.0
CREATION_DATE  = 
ORIGINATOR     = 

OBJECT_NAME    = STARLINK-36675
OBJECT_ID      = 2026-022R
CENTER_NAME    = EARTH
REF_FRAME      = TEME
TIME_SYSTEM    = UTC
MEAN_ELEMENT_THEORY = SGP/SGP4

EPOCH          = 2026-02-09T22:00:03.000096
MEAN_MOTION    = 15.96964009
ECCENTRICITY   = .00012453
INCLINATION    = 97.2812
RA_OF_ASC_NODE = 73.4447
ARG_OF_PERICENTER = 77.0254
MEAN_ANOMALY   = 210.4731

EPHEMERIS_TYPE = 0
CLASSIFICATION_TYPE = U
NORAD_CAT_ID   = 67663
ELEMENT_SET_NO = 999
REV_AT_EPOCH   = 242
BSTAR          = -.38913712E-2
MEAN_MOTION_DOT = -.1652637E-1
MEAN_MOTION_DDOT = .80401888E-3

CCSDS_OMM_VERS = 2.0
CREATION_DATE  = 
ORIGINATOR     = 

OBJECT_NAME    = STARLINK-36404
OBJECT_ID      = 2026-022S
CENTER_NAME    = EARTH
REF_FRAME      = TEME
TIME_SYSTEM    = UTC
MEAN_ELEMENT_THEORY = SGP/SGP4

EPOCH          = 2026-02-09T22:00:03.000096
MEAN_MOTION    = 15.97318659
ECCENTRICITY   = .00011968
INCLINATION    = 97.2806
RA_OF_ASC_NODE = 73.4465
ARG_OF_PERICENTER = 81.0691
MEAN_ANOMALY   = 212.0489

EPHEMERIS_TYPE = 0
CLASSIFICATION_TYPE = U
NORAD_CAT_ID   = 67664
ELEMENT_SET_NO = 999
REV_AT_EPOCH   = 239
BSTAR          = -.37670408E-2
MEAN_MOTION_DOT = -.1631307E-1
MEAN_MOTION_DDOT = .78783231E-3

CCSDS_OMM_VERS = 2.0
CREATION_DATE  = 
ORIGINATOR     = 

OBJECT_NAME    = STARLINK-36399
OBJECT_ID      = 2026-022T
CENTER_NAME    = EARTH
REF_FRAME      = TEME
TIME_SYSTEM    = UTC
MEAN_ELEMENT_THEORY = SGP/SGP4

EPOCH          = 2026-02-09T22:00:03.000096
MEAN_MOTION    = 15.97447563
ECCENTRICITY   = .00011954
INCLINATION    = 97.2805
RA_OF_ASC_NODE = 73.4477
ARG_OF_PERICENTER = 79.0943
MEAN_ANOMALY   = 216.1329

EPHEMERIS_TYPE = 0
CLASSIFICATION_TYPE = U
NORAD_CAT_ID   = 67665
ELEMENT_SET_NO = 999
REV_AT_EPOCH   = 239
BSTAR          = -.37332897E-2
MEAN_MOTION_DOT = -.1628163E-1
MEAN_MOTION_DDOT = .78611064E-3

CCSDS_OMM_VERS = 2.0
CREATION_DATE  = 
ORIGINATOR     = 

OBJECT_NAME    = STARLINK-36365
OBJECT_ID      = 2026-022U
CENTER_NAME    = EARTH
REF_FRAME      = TEME
TIME_SYSTEM    = UTC
MEAN_ELEMENT_THEORY = SGP/SGP4

EPOCH          = 2026-02-09T22:00:03.000096
MEAN_MOTION    = 15.97656221
ECCENTRICITY   = .00012461
INCLINATION    = 97.2806
RA_OF_ASC_NODE = 73.4495
ARG_OF_PERICENTER = 76.9480
MEAN_ANOMALY   = 221.4085

EPHEMERIS_TYPE = 0
CLASSIFICATION_TYPE = U
NORAD_CAT_ID   = 67666
ELEMENT_SET_NO = 999
REV_AT_EPOCH   = 242
BSTAR          = -.36920689E-2
MEAN_MOTION_DOT = -.1628703E-1
MEAN_MOTION_DDOT = .78838925E-3

CCSDS_OMM_VERS = 2.0
CREATION_DATE  = 
ORIGINATOR     = 

OBJECT_NAME    = STARLINK-36622
OBJECT_ID      = 2026-022V
CENTER_NAME    = EARTH
REF_FRAME      = TEME
TIME_SYSTEM    = UTC
MEAN_ELEMENT_THEORY = SGP/SGP4

EPOCH          = 2026-02-09T22:00:03.000096
MEAN_MOTION    = 15.97875130
ECCENTRICITY   = .0001191
INCLINATION    = 97.2804
RA_OF_ASC_NODE = 73.4506
ARG_OF_PERICENTER = 83.1872
MEAN_ANOMALY   = 218.4341

EPHEMERIS_TYPE = 0
CLASSIFICATION_TYPE = U
NORAD_CAT_ID   = 67667
ELEMENT_SET_NO = 999
REV_AT_EPOCH   = 242
BSTAR          = -.36177636E-2
MEAN_MOTION_DOT = -.1615377E-1
MEAN_MOTION_DDOT = .77828586E-3

CCSDS_OMM_VERS = 2.0
CREATION_DATE  = 
ORIGINATOR     = 

OBJECT_NAME    = STARLINK-36625
OBJECT_ID      = 2026-022W
CENTER_NAME    = EARTH
REF_FRAME      = TEME
TIME_SYSTEM    = UTC
MEAN_ELEMENT_THEORY = SGP/SGP4

EPOCH          = 2026-02-09T22:00:03.000096
MEAN_MOTION    = 15.98117597
ECCENTRICITY   = .00011543
INCLINATION    = 97.2801
RA_OF_ASC_NODE = 73.4521
ARG_OF_PERICENTER = 80.4338
MEAN_ANOMALY   = 224.7218

EPHEMERIS_TYPE = 0
CLASSIFICATION_TYPE = U
NORAD_CAT_ID   = 67668
ELEMENT_SET_NO = 999
REV_AT_EPOCH   = 242
BSTAR          = -.35797015E-2
MEAN_MOTION_DOT = -.1619813E-1
MEAN_MOTION_DDOT = .78435381E-3

CCSDS_OMM_VERS = 2.0
CREATION_DATE  = 
ORIGINATOR     = 

OBJECT_NAME    = STARLINK-36639
OBJECT_ID      = 2026-022X
CENTER_NAME    = EARTH
REF_FRAME      = TEME
TIME_SYSTEM    = UTC
MEAN_ELEMENT_THEORY = SGP/SGP4

EPOCH          = 2026-02-09T22:00:03.000096
MEAN_MOTION    = 15.98344898
ECCENTRICITY   = .00011454
INCLINATION    = 97.2803
RA_OF_ASC_NODE = 73.4539
ARG_OF_PERICENTER = 81.1945
MEAN_ANOMALY   = 227.3343

EPHEMERIS_TYPE = 0
CLASSIFICATION_TYPE = U
NORAD_CAT_ID   = 67669
ELEMENT_SET_NO = 999
REV_AT_EPOCH   = 242
BSTAR          = -.35115226E-2
MEAN_MOTION_DOT = -.1609166E-1
MEAN_MOTION_DDOT = .7767273E-3

CCSDS_OMM_VERS = 2.0
CREATION_DATE  = 
ORIGINATOR     = 

OBJECT_NAME    = STARLINK-36596
OBJECT_ID      = 2026-022Y
CENTER_NAME    = EARTH
REF_FRAME      = TEME
TIME_SYSTEM    = UTC
MEAN_ELEMENT_THEORY = SGP/SGP4

EPOCH          = 2026-02-09T22:00:03.000096
MEAN_MOTION    = 15.98525833
ECCENTRICITY   = .00012063
INCLINATION    = 97.2799
RA_OF_ASC_NODE = 73.4547
ARG_OF_PERICENTER = 80.8386
MEAN_ANOMALY   = 230.5232

EPHEMERIS_TYPE = 0
CLASSIFICATION_TYPE = U
NORAD_CAT_ID   = 67670
ELEMENT_SET_NO = 999
REV_AT_EPOCH   = 242
BSTAR          = -.34498473E-2
MEAN_MOTION_DOT = -.1596982E-1
MEAN_MOTION_DDOT = .7673511E-3

CCSDS_OMM_VERS = 2.0
CREATION_DATE  = 
ORIGINATOR     = 

OBJECT_NAME    = STARLINK-36297
OBJECT_ID      = 2026-022Z
CENTER_NAME    = EARTH
REF_FRAME      = TEME
TIME_SYSTEM    = UTC
MEAN_ELEMENT_THEORY = SGP/SGP4

EPOCH          = 2026-02-09T22:00:03.000096
MEAN_MOTION    = 15.98827699
ECCENTRICITY   = .00011069
INCLINATION    = 97.2797
RA_OF_ASC_NODE = 73.4568
ARG_OF_PERICENTER = 80.6112
MEAN_ANOMALY   = 235.5354

EPHEMERIS_TYPE = 0
CLASSIFICATION_TYPE = U
NORAD_CAT_ID   = 67671
ELEMENT_SET_NO = 999
REV_AT_EPOCH   = 242
BSTAR          = -.33682338E-2
MEAN_MOTION_DOT = -.1585682E-1
MEAN_MOTION_DDOT = .75981688E-3

CCSDS_OMM_VERS = 2.0
CREATION_DATE  = 
ORIGINATOR     = 

OBJECT_NAME    = STARLINK-36616
OBJECT_ID      = 2026-022AA
CENTER_NAME    = EARTH
REF_FRAME      = TEME
TIME_SYSTEM    = UTC
MEAN_ELEMENT_THEORY = SGP/SGP4

EPOCH          = 2026-02-09T22:00:03.000096
MEAN_MOTION    = 15.98685762
ECCENTRICITY   = .00011321
INCLINATION    = 97.2799
RA_OF_ASC_NODE = 73.4559
ARG_OF_PERICENTER = 77.7562
MEAN_ANOMALY   = 236.1448

EPHEMERIS_TYPE = 0
CLASSIFICATION_TYPE = U
NORAD_CAT_ID   = 67672
ELEMENT_SET_NO = 999
REV_AT_EPOCH   = 242
BSTAR          = -.33991819E-2
MEAN_MOTION_DOT = -.1587653E-1
MEAN_MOTION_DDOT = .76037815E-3

